CELESTIS-02             
1 25160U 98007D   14092.84303963  .00000068  00000-0  88526-4 0  4374
2 25160 107.9470   0.7997 0063546 211.2574 178.2376 14.21198060837129
CELESTIS-03             
1 26034U 99070C   14093.82826502  .00015333  00000-0  15606-2 0   592
2 26034  98.2200 196.3818 0015214 101.6231 258.6695 14.90753384769929
